NORAD_CAT_ID,OBJECT_NAME,OBJECT_TYPE,EPOCH,MEAN_MOTION,ECCENTRICITY,INCLINATION,RA_OF_ASC_NODE,ARG_OF_PERICENTER,MEAN_ANOMALY,BSTAR,MEAN_MOTION_DOT,MEAN_MOTION_DDOT,TLE_LINE0,TLE_LINE1,TLE_LINE2,SEMIMAJOR_AXIS,PERIOD,APOGEE,PERIGEE,DECAYED
54082.0,STARLINK-5210,PAYLOAD,2022-11-19 04:00:00,15.7307568,0.0003473,53.2171,1.6121,8.2244,297.3771,0.0014119999999999,0.00201323,0.0,0 STARLINK-5210,1 54082U 22136AH  22323.16667824  .00201323  00000-0  14120-2 0  9996,2 54082  53.2171   1.6121 0003473   8.2244 297.3771 15.73075680  5168,6728.25,91.54,352.451,347.778,0.0
54082.0,STARLINK-5210,PAYLOAD,2022-11-19 14:00:01,15.73195945,0.000389,53.2152,359.5592,3.6137,143.2016,0.00013386,0.00018207,0.0,0 STARLINK-5210,1 54082U 22136AH  22323.58334491  .00018207  00000-0  13386-3 0  9994,2 54082  53.2152 359.5592 0003890   3.6137 143.2016 15.73195945  1307,6727.906999999997,91.533,352.389,347.155,0.0
54082.0,STARLINK-5210,PAYLOAD,2022-11-19 20:00:01,15.73207075,0.0003702,53.2152,358.3204,3.9348,119.5763,5.1721e-05,6.645e-05,0.0,0 STARLINK-5210,1 54082U 22136AH  22323.83334491  .00006645  00000-0  51721-4 0  9991,2 54082  53.2152 358.3204 0003702   3.9348 119.5763 15.73207075  5265,6727.875,91.533,352.231,347.249,0.0
54082.0,STARLINK-5210,PAYLOAD,2022-11-19 22:00:00,15.73204189,0.0003642,53.2152,357.9076,4.4036,231.3441,0.00010197,0.00013718,0.0,0 STARLINK-5210,1 54082U 22136AH  22323.91667824  .00013718  00000-0  10197-3 0  9999,2 54082  53.2152 357.9076 0003642   4.4036 231.3441 15.73204189  1300,6727.8830000000025,91.533,352.199,347.298,0.0
54082.0,STARLINK-5210,PAYLOAD,2022-11-20 14:00:01,15.73218122,0.0003959,53.2151,354.6106,6.2356,47.3819,-0.00027925,-0.0003968,0.0,0 STARLINK-5210,1 54082U 22136AH  22324.58334491 -.00039680  00000-0 -27925-3 0  9999,2 54082  53.2151 354.6106 0003959   6.2356  47.3819 15.73218122  1309,6727.844,91.532,352.372,347.045,0.0
54082.0,STARLINK-5210,PAYLOAD,2022-11-20 20:00:01,15.73194064,0.0003739,53.2156,353.3717,3.9469,26.3791,-0.00052539,-0.0007373,0.0,0 STARLINK-5210,1 54082U 22136AH  22324.83334491 -.00073730  00000-0 -52539-3 0  9990,2 54082  53.2156 353.3717 0003739   3.9469  26.3791 15.73194064  5424,6727.9119999999975,91.534,352.293,347.26199999999994,0.0
54082.0,STARLINK-5210,PAYLOAD,2022-11-20 22:00:00,15.73147185,0.0003732,53.2154,352.959,3.727,138.8364,7.6675e-05,0.0001013,0.0,0 STARLINK-5210,1 54082U 22136AH  22324.91667824  .00010130  00000-0  76675-4 0  9999,2 54082  53.2154 352.9590 0003732   3.7270 138.8364 15.73147185  1307,6728.045999999999,91.536,352.422,347.4,0.0
54082.0,STARLINK-5210,PAYLOAD,2022-11-21 04:00:01,15.73164369,0.0003771,53.2156,351.7221,5.6193,113.6647,0.00022246,0.00030674,0.0,0 STARLINK-5210,1 54082U 22136AH  22325.16668981  .00030674  00000-0  22246-3 0  9991,2 54082  53.2156 351.7221 0003771   5.6193 113.6647 15.73164369  5475,6727.996999999999,91.535,352.399,347.325,0.0
54082.0,STARLINK-5210,PAYLOAD,2022-11-21 14:00:01,15.73189483,0.0004082,53.2147,349.6618,5.5078,314.8413,0.00055041,0.00077331,0.0,0 STARLINK-5210,1 54082U 22136AH  22325.58334491  .00077331  00000-0  55041-3 0  9993,2 54082  53.2147 349.6618 0004082   5.5078 314.8413 15.73189483  1306,6727.925,91.534,352.536,347.0440000000001,0.0
54082.0,STARLINK-5210,PAYLOAD,2022-11-21 22:00:00,15.73234062,0.0003742,53.2147,348.0102,4.6658,44.637,-0.00015925,-0.00022955,0.0,0 STARLINK-5210,1 54082U 22136AH  22325.91667824 -.00022955  00000-0 -15925-3 0  9990,2 54082  53.2147 348.0102 0003742   4.6658  44.6370 15.73234062  1307,6727.7980000000025,91.531,352.181,347.146,0.0
54082.0,STARLINK-5210,PAYLOAD,2022-11-22 12:00:00,15.73171012,0.0004061,53.2148,345.1256,3.4749,111.4919,0.00027577,0.00038222,0.0,0 STARLINK-5210,1 54082U 22136AH  22326.50001157  .00038222  00000-0  27577-3 0  9995,2 54082  53.2148 345.1256 0004061   3.4749 111.4919 15.73171012  5681,6727.978,91.535,352.575,347.111,0.0
54082.0,STARLINK-5210,PAYLOAD,2022-11-22 14:00:01,15.73206608,0.0004053,53.2146,344.7128,3.5606,223.6891,-0.00024911,-0.00035466,0.0,0 STARLINK-5210,1 54082U 22136AH  22326.58335648 -.00035466  00000-0 -24911-3 0  9996,2 54082  53.2146 344.7128 0004053   3.5606 223.6891 15.73206608  1306,6727.876,91.533,352.468,347.015,0.0
54082.0,STARLINK-5210,PAYLOAD,2022-11-22 20:00:01,15.73153744,0.0003937,53.2151,343.4739,6.0161,197.8783,0.00036474,0.00050793,0.0,0 STARLINK-5210,1 54082U 22136AH  22326.83334491  .00050793  00000-0  36474-3 0  9994,2 54082  53.2151 343.4739 0003937   6.0161 197.8783 15.73153744  5746,6728.026999999999,91.536,352.541,347.24300000000005,0.0
54082.0,STARLINK-5210,PAYLOAD,2022-11-22 22:00:00,15.73136137,0.0003888,53.2149,343.0611,7.181,308.9422,0.00075041,0.0010577,0.0,0 STARLINK-5210,1 54082U 22136AH  22326.91667824  .00105770  00000-0  75041-3 0  9991,2 54082  53.2149 343.0611 0003888   7.1810 308.9422 15.73136137  1306,6728.0769999999975,91.537,352.55800000000005,347.326,0.0
54082.0,STARLINK-5210,PAYLOAD,2022-11-23 12:00:02,15.73134992,0.0004213,53.2147,340.1765,7.0402,14.7407,0.00063309,0.00088959,0.0,0 STARLINK-5210,1 54082U 22136AH  22327.50002315  .00088959  00000-0  63309-3 0  9998,2 54082  53.2147 340.1765 0004213   7.0402  14.7407 15.73134992  5846,6728.081,91.537,352.78,347.111,0.0
54082.0,STARLINK-5210,PAYLOAD,2022-11-23 14:00:01,15.73166877,0.0004186,53.2144,339.7637,7.1063,126.8205,0.00030707,0.00042648,0.0,0 STARLINK-5210,1 54082U 22136AH  22327.58334491  .00042648  00000-0  30707-3 0  9990,2 54082  53.2144 339.7637 0004186   7.1063 126.8205 15.73166877  1303,6727.99,91.535,352.671,347.038,0.0
54082.0,STARLINK-5210,PAYLOAD,2022-11-23 22:00:00,15.73184514,0.0003882,53.2144,338.1122,7.6734,215.1684,0.00050557,0.00070908,0.0,0 STARLINK-5210,1 54082U 22136AH  22327.91667824  .00070908  00000-0  50557-3 0  9991,2 54082  53.2144 338.1122 0003882   7.6734 215.1684 15.73184514  1308,6727.939,91.534,352.416,347.1930000000001,0.0
54082.0,STARLINK-5210,PAYLOAD,2022-11-24 04:00:00,15.73249197,0.000395,53.2147,336.8759,8.0869,191.4476,-0.0005202,-0.00073189,0.0,0 STARLINK-5210,1 54082U 22136AH  22328.16667824 -.00073189  00000-0 -52020-3 0  9992,2 54082  53.2147 336.8759 0003950   8.0869 191.4476 15.73249197  5940,6727.755,91.53,352.277,346.962,0.0
54082.0,STARLINK-5210,PAYLOAD,2022-11-24 12:00:00,15.73178731,0.0004192,53.2146,335.2276,5.7598,282.7319,0.00057841,0.000813,0.0,0 STARLINK-5210,1 54082U 22136AH  22328.50001157  .00081300  00000-0  57841-3 0  9999,2 54082  53.2146 335.2276 0004192   5.7598 282.7319 15.73178731  6001,6727.956,91.534,352.641,347.0,0.0
54082.0,STARLINK-5210,PAYLOAD,2022-11-24 14:00:01,15.7322321,0.0004191,53.2145,334.8147,5.9447,34.7679,9.0067e-06,6.41e-06,0.0,0 STARLINK-5210,1 54082U 22136AH  22328.58334491  .00000641  00000-0  90067-5 0  9995,2 54082  53.2145 334.8147 0004191   5.9447  34.7679 15.73223210  1301,6727.829000000002,91.532,352.514,346.874,0.0
54082.0,STARLINK-5210,PAYLOAD,2022-11-24 20:00:01,15.73211339,0.0003916,53.215,333.5757,5.8017,11.6394,-0.00012961,-0.00018791,0.0,0 STARLINK-5210,1 54082U 22136AH  22328.83334491 -.00018791  00000-0 -12961-3 0  9995,2 54082  53.2150 333.5757 0003916   5.8017  11.6394 15.73211339  6050,6727.863,91.533,352.362,347.093,0.0
54082.0,STARLINK-5210,PAYLOAD,2022-11-24 22:00:00,15.73178499,0.0003922,53.2149,333.1629,5.7677,123.9186,0.00032698,0.00045489,0.0,0 STARLINK-5210,1 54082U 22136AH  22328.91667824  .00045489  00000-0  32698-3 0  9994,2 54082  53.2149 333.1629 0003922   5.7677 123.9186 15.73178499  1308,6727.956,91.534,352.46,347.18300000000005,0.0
54082.0,STARLINK-5210,PAYLOAD,2022-11-25 04:00:01,15.73225422,0.0004037,53.2152,331.9267,6.6167,99.819,-8.3488e-06,-1.798e-05,0.0,0 STARLINK-5210,1 54082U 22136AH  22329.16668981 -.00001798  00000-0 -83488-5 0  9999,2 54082  53.2152 331.9267 0004037   6.6167  99.8190 15.73225422  6106,6727.823,91.532,352.404,346.972,0.0
54082.0,STARLINK-5210,PAYLOAD,2022-11-25 14:00:01,15.73213234,0.0004198,53.2147,329.8652,4.8919,302.6847,0.00013192,0.00017948,0.0,0 STARLINK-5210,1 54082U 22136AH  22329.58334491  .00017948  00000-0  13192-3 0  9996,2 54082  53.2147 329.8652 0004198   4.8919 302.6847 15.73213234  1306,6727.857,91.532,352.547,346.898,0.0
54082.0,STARLINK-5210,PAYLOAD,2022-11-25 22:00:00,15.73228548,0.0003907,53.2148,328.2139,4.3839,32.1514,3.4223e-05,4.188e-05,0.0,0 STARLINK-5210,1 54082U 22136AH  22329.91667824  .00004188  00000-0  34223-4 0  9993,2 54082  53.2148 328.2139 0003907   4.3839  32.1514 15.73228548  1303,6727.814,91.532,352.307,347.05,0.0
54082.0,STARLINK-5210,PAYLOAD,2022-11-26 12:00:00,15.73258584,0.000422,53.2149,325.3292,2.3358,99.8944,-0.00027945,-0.00039779,0.0,0 STARLINK-5210,1 54082U 22136AH  22330.50001157 -.00039779  00000-0 -27945-3 0  9999,2 54082  53.2149 325.3292 0004220   2.3358  99.8944 15.73258584  6311,6727.728,91.53,352.432,346.754,0.0
54082.0,STARLINK-5210,PAYLOAD,2022-11-26 14:00:01,15.73263437,0.0004163,53.2149,324.9162,2.2902,212.1856,-0.00045765,-0.00064572,0.0,0 STARLINK-5210,1 54082U 22136AH  22330.58334491 -.00064572  00000-0 -45765-3 0  9996,2 54082  53.2149 324.9162 0004163   2.2902 212.1856 15.73263437  1301,6727.714,91.529,352.38,346.779,0.0
54082.0,STARLINK-5210,PAYLOAD,2022-11-26 22:00:00,15.73240516,0.0003947,53.2153,323.2647,4.0845,299.3713,-0.00052897,-0.00074375,0.0,0 STARLINK-5210,1 54082U 22136AH  22330.91667824 -.00074375  00000-0 -52897-3 0  9998,2 54082  53.2153 323.2647 0003947   4.0845 299.3713 15.73240516  1303,6727.78,91.531,352.3,346.98900000000015,0.0
54082.0,STARLINK-5210,PAYLOAD,2022-11-27 14:00:01,15.73165375,0.0004221,53.2151,319.9673,5.7825,115.48,0.00015819,0.00021611,0.0,0 STARLINK-5210,1 54082U 22136AH  22331.58334491  .00021611  00000-0  15819-3 0  9999,2 54082  53.2151 319.9673 0004221   5.7825 115.4800 15.73165375  1308,6727.994000000002,91.535,352.699,347.019,0.0
